#dP2024 10 31  0  0  0.00000000      96 __u+U IGS20 EXT  IAC
## 2338 345600.00000000   900.00000000 60614 0.0000000000000
+   53   G02G03G04G05G06G07G08G09G10G11G12G13G14G15G16G17G18
+        G19G20G21G22G23G24G25G26G27G28G29G30G31G32R01R02R03
+        R04R05R07R08R09R11R12R14R15R16R17R18R19R20R21R22R24
+        R25R26  0  0  0  0  0  0  0  0  0  0  0  0  0  0  0
+          0  0  0  0  0  0  0  0  0  0  0  0  0  0  0  0  0
++         6  8  6  6  7  7  7  6  7  7  8  7  8  7  7  6  7
++         8  6  6  6  7  7  7  8  7  7  7  7  7  7  8  7  7
++         7  9  7  7  7  8  9  9  9  9  7  8  9  8  7  9  8
++         7  8  0  0  0  0  0  0  0  0  0  0  0  0  0  0  0
++         0  0  0  0  0  0  0  0  0  0  0  0  0  0  0  0  0
%c M  cc GPS ccc cccc cccc cccc cccc ccccc ccccc ccccc ccccc
%c cc cc ccc ccc cccc cccc cccc cccc ccccc ccccc ccccc ccccc
%f  0.0000000  0.000000000  0.00000000000  0.000000000000000
%f  0.0000000  0.000000000  0.00000000000  0.000000000000000
%i    0    0    0    0      0      0      0      0         0
%i    0    0    0    0      0      0      0      0         0
/* IAC                                ULTRA-RAPID PREDICTION
/* S/V CLOCKS ARE ALIGNED TO GNSS TIME                      
/* G:C1WC2W R:C1PC2P E:C1XC5X C:C2IC6I J:C1CC2S             
/* PCV:IGS20_2317 OL/AL:FES2004  NONE     YN ORB:CoN CLK:CoN
*  2024 10 31  2  0  0.00000000
PG02  13854.717971 -16110.803563  16182.503371   -325.370082
PG03  21084.121897 -12784.363262  -9891.609382    586.233427
PG04  11259.852540 -10082.017245 -21829.291942    471.125731
PG05 -25553.264694   4363.543428  -6117.178756   -191.490173
PG06  -6927.405360 -18659.273932 -17460.354457    -77.961601
PG07   6002.273010 -25613.513786    422.109887    -23.376474
PG08  19627.067082    290.657753  17973.044145    400.078149
PG09   1464.333578 -17576.867528 -19931.502654    422.149793
PG10   9612.231262  12234.581967  21796.080280   -177.779251
PG11 -14335.212657  -4695.283789 -21823.957404   -747.576051
PG12 -23873.122079   9794.408468  -6469.387279   -548.818496
PG13 -20083.143626 -10020.366013  14153.570628    683.920402
PG14  -5327.521094 -14680.705893  21536.722382    529.315309
PG15 -19225.433613   2494.145251  17699.273268    222.035805
PG16  24934.274162   2095.379559  -9895.404384   -140.929198
PG17 -11589.137370 -22055.264870   9341.573744    576.661604
PG18  -5708.688362  25761.495953   1651.894080   -659.498961
PG19 -17733.429880 -20078.181457   -848.624343    557.001050
PG20 -20956.050439  -2189.129021 -16004.582296    369.174812
PG21  15269.302257  -9380.529781  19625.436813     98.578361
PG22 -13099.995820 -11811.368361  20166.667836    -75.568452
PG23  -5602.416445  16070.458612  20360.587166    353.052011
PG24 -14274.506174  14590.163605  16319.660616   -482.710231
PG25 -13363.244577  16360.579576 -16285.995756    499.298052
PG26  17782.466420   7859.178676 -18425.516512     42.195140
PG27  22051.162817  10836.160246  10322.177174    -34.734174
PG28   6841.924130  20334.592911 -15670.593902   -463.566629
PG29  -4124.255906  16455.009647 -20446.967082   -567.420733
PG30  -1739.610976 -24400.603269  10158.308249   -291.755288
PG31  13009.792167   9590.456719 -21256.185440   -222.566015
PG32  14964.540497  20943.191513   7191.399561   -580.175785
PR01  -9518.051251 -13602.574105 -19372.349166    102.825101
PR02 -21694.426075 -12238.026277  -5279.034278    -25.434500
PR03 -22231.062068  -3401.622299  12011.570451    110.443774
PR04 -10599.099824   6557.234732  22274.934223    261.742938
PR05   6602.210547  13379.396617  20703.878627    139.964824
PR07  22126.828830   3247.987758 -12289.161221     94.016739
PR08  10413.473425  -6827.313573 -22214.850049     -6.349449
PR09  11590.618780   4776.622389 -22184.482419    217.772972
PR11  19113.105841 -16572.897830   3206.971536      7.993901
PR12   5058.766696 -15599.481805  19565.137462     46.671269
PR14 -20722.441358   8499.111051  12236.281353     27.145907
PR15 -18442.560601  16924.503510  -4911.125598     74.554946
PR16  -5286.623079  15589.772556 -19490.497645     30.389356
PR17 -10541.724011   1469.006822 -23165.633350    135.548540
PR18  -6030.033375  17883.134482 -17160.233916    169.510539
PR19   -189.795132  25141.292453  -4263.442862   -296.760031
PR20   8409.038467  17961.245917  16077.139162   -121.220305
PR21  10574.127199   -427.571787  23215.404632   -147.249683
PR22   6287.476841 -18659.572143  16243.958366      4.919676
PR24  -9703.113663 -17102.796807 -16239.292065    -78.158319
PR25  10858.270301  -1634.513359  23034.443229    -85.464452
PR26  11893.309273  -5997.413327 -21734.944265   -500.907098
*  2024 10 31  2 15  0.00000000
PG02  13777.011816 -14219.710652  18003.759499   -325.362500
PG03  22048.189437 -12913.495809  -7203.944695    586.243395
PG04  13037.472285  -8346.212967 -21584.505431    471.131693
PG05 -24847.021762   3884.091665  -8823.717399   -191.491227
PG06  -6382.603502 -20480.818307 -15517.067480    -77.987185
PG07   6281.771901 -25376.374334  -2436.912454    -23.374047
PG08  21040.391103   1667.506079  16267.163148    400.087912
PG09   3287.990831 -16139.367316 -20916.060308    422.164896
PG10   7274.158683  13002.283015  22227.749810   -177.791845
PG11 -13689.307731  -7100.322433 -21593.497748   -747.578092
PG12 -24466.301528   9690.075876  -3687.496673   -548.820792
PG13 -20921.456656 -11290.678368  11853.221746    683.921974
PG14  -2971.106073 -15377.826970  21483.561756    529.322811
PG15 -20813.973761   1227.025208  16018.489389    222.039858
PG16  23795.415163   2546.303431 -12335.216424   -140.920275
PG17 -10620.389955 -21377.595538  11860.213056    576.649213
PG18  -5941.247191  25728.551987  -1244.278506   -659.499740
PG19 -17524.270306 -20158.895424   1990.182059    557.005151
PG20 -19321.164129  -3271.886787 -17783.442381    369.174485
PG21  15145.553798  -7117.894146  20759.301461     98.577570
PG22 -10888.871207 -12414.093052  21142.970791    -75.571269
PG23  -7754.973509  16733.497948  19057.263531    353.059248
PG24 -14273.081539  12514.192602  17956.577907   -482.708672
PG25 -15042.395955  16722.541054 -14263.409045    499.297865
PG26  15856.668828   8817.715214 -19682.704750     42.186280
PG27  22706.446238  11696.209969   7750.886243    -34.734273
PG28   6362.332043  21945.073840 -13555.090527   -463.577725
PG29  -5823.018748  14785.735197 -21303.814480   -567.418177
PG30  -1225.316238 -25323.015881   7594.164723   -291.748458
PG31  12384.454687  11853.096027 -20430.825008   -222.565468
PG32  14118.672459  20480.635554   9814.416071   -580.171396
PR01  -7201.069442 -12700.610672 -20922.348438    102.826221
PR02 -20966.161861 -11772.721455  -8363.638453    -25.434681
PR03 -23496.086204  -3740.889816   9146.579120    110.444413
PR04 -13106.177545   5615.363244  21167.787244    261.744513
PR05   4190.487743  12323.816006  21947.892965    139.965297
PR07  23434.028729   3600.249048  -9453.110567     94.017367
PR08  12936.770521  -5899.995517 -21134.278496     -6.349435
PR09   9479.883996   6577.285539 -22726.038314    217.774896
PR11  19172.918138 -16810.508360      1.578384      7.993016
PR12   6789.527311 -17106.086898  17691.038282     46.671626
PR14 -19376.238938   7512.746307  14815.782977     27.145915
PR15 -18681.771099  17284.660616  -1741.508773     74.554669
PR16  -7000.208663  17109.573923 -17586.049746     30.389668
PR17 -10967.803137  -1352.180239 -22978.335602    135.551584
PR18  -6201.934110  15638.803024 -19167.439882    169.512204
PR19    -54.548431  24401.520619  -7404.386376   -296.761189
PR20   8759.551438  19764.377337  13580.735965   -121.220630
PR21  10978.939477   2390.751865  22903.361410   -147.252430
PR22   6425.548635 -16532.545404  18360.535266      4.909113
PR24 -10088.452768 -18923.592197 -13808.445269    -78.159733
PR25  11169.102080   1180.669954  22911.034165    -85.459843
PR26  14350.793417  -5124.292297 -20435.630668   -500.871837
EOF
